ONEWEB-0123             
1 47269U 20100M   26047.29466792  .00000163  00000+0  41762-3 0  9997
2 47269  87.8964  14.6702 0001934  77.6771 282.4574 13.12442484248834
ONEWEB-0124             
1 47270U 20100N   26047.28449806  .00000495  00000+0  13398-2 0  9996
2 47270  87.8966  14.6766 0001762  78.3735 281.7591 13.12442702248716
ONEWEB-0125             
1 47271U 20100P   26047.26248374 -.00000055  00000+0 -18708-3 0  9997
2 47271  87.8972  14.6502 0001869  73.3727 286.7607 13.12442398248776
ONEWEB-0126             
1 47272U 20100Q   26047.28294569  .00000493  00000+0  13343-2 0  9990
2 47272  87.8976  14.6688 0001964  84.1198 276.0155 13.12443975248844
ONEWEB-0127             
1 47273U 20100R   26046.94397190 -.00000212  00000+0 -62516-3 0  9995
2 47273  87.8960  14.7425 0001939  86.8664 273.2686 13.12444946248822
ONEWEB-0128             
1 47274U 20100S   26047.27096073  .00000836  00000+0  22884-2 0  9992
2 47274  87.8965  14.6916 0001500  89.8980 270.2320 13.12441804248888
ONEWEB-0129             
1 47275U 20100T   26046.94565757 -.00000537  00000+0 -15272-2 0  9999
2 47275  87.8970  14.7174 0002779  99.0227 261.1216 13.12443087248774
ONEWEB-0130             
1 47276U 20100U   26047.27772618  .00000446  00000+0  12050-2 0  9991
2 47276  87.8974  14.6457 0001864  87.4689 272.6653 13.12442829248785
ONEWEB-0131             
1 47277U 20100V   26046.43572070  .00000397  00000+0  10689-2 0  9990
2 47277  87.8967  14.8431 0001822  84.1414 275.9922 13.12444921248719
ONEWEB-0132             
1 47278U 20100W   26046.84572631 -.00000167  00000+0 -49828-3 0  9994
2 47278  87.8963  14.7609 0001767  84.3668 275.7662 13.12441482248665
ONEWEB-0133             
1 47279U 20100X   26046.93874548 -.00000357  00000+0 -10281-2 0  9998
2 47279  87.8972  14.7057 0001704  85.3465 274.7858 13.12443963248831
ONEWEB-0134             
1 47280U 20100Y   26047.28958864  .00000343  00000+0  91776-3 0  9995
2 47280  87.8976  14.6329 0001797  91.3303 268.8032 13.12442734248853
ONEWEB-0135             
1 47281U 20100Z   26046.95583410  .00000143  00000+0  36295-3 0  9993
2 47281  87.8964  14.7373 0001700  93.2960 266.8363 13.12444088248832
ONEWEB-0136             
1 47282U 20100AA  26046.82198705  .00000336  00000+0  89812-3 0  9996
2 47282  87.8974  14.7348 0001830  94.9740 265.1598 13.12444037248740
ONEWEB-0137             
1 47283U 20100AB  26046.93211286 -.00000363  00000+0 -10433-2 0  9993
2 47283  87.8970  14.7181 0001967  79.6087 280.5263 13.12443067248660
ONEWEB-0138             
1 47284U 20100AC  26047.29128005  .00000248  00000+0  65409-3 0  9994
2 47284  87.8975  14.6557 0001879  88.3463 271.7880 13.12441869248798
ONEWEB-0139             
1 47285U 20100AD  26046.95088754 -.00000165  00000+0 -49319-3 0  9995
2 47285  87.8972  14.7118 0001889  84.4203 275.7141 13.12443265248820
