[{"OBJECT_NAME":"ONEWEB-0123","OBJECT_ID":"2020-100M","EPOCH":"2026-02-16T07:04:19.308288","MEAN_MOTION":13.12442484,"ECCENTRICITY":0.00019341,"INCLINATION":87.8964,"RA_OF_ASC_NODE":14.6702,"ARG_OF_PERICENTER":77.6771,"MEAN_ANOMALY":282.4574,"EPHEMERIS_TYPE":0,"CLASSIFICATION_TYPE":"U","NORAD_CAT_ID":47269,"ELEMENT_SET_NO":999,"REV_AT_EPOCH":24883,"BSTAR":0.00041761817,"MEAN_MOTION_DOT":1.63e-6,"MEAN_MOTION_DDOT":0},{"OBJECT_NAME":"ONEWEB-0124","OBJECT_ID":"2020-100N","EPOCH":"2026-02-16T06:49:40.632384","MEAN_MOTION":13.12442702,"ECCENTRICITY":0.00017628,"INCLINATION":87.8966,"RA_OF_ASC_NODE":14.6766,"ARG_OF_PERICENTER":78.3735,"MEAN_ANOMALY":281.7591,"EPHEMERIS_TYPE":0,"CLASSIFICATION_TYPE":"U","NORAD_CAT_ID":47270,"ELEMENT_SET_NO":999,"REV_AT_EPOCH":24871,"BSTAR":0.0013397526,"MEAN_MOTION_DOT":4.95e-6,"MEAN_MOTION_DDOT":0},{"OBJECT_NAME":"ONEWEB-0125","OBJECT_ID":"2020-100P","EPOCH":"2026-02-16T06:17:58.595136","MEAN_MOTION":13.12442398,"ECCENTRICITY":0.00018694,"INCLINATION":87.8972,"RA_OF_ASC_NODE":14.6502,"ARG_OF_PERICENTER":73.3727,"MEAN_ANOMALY":286.7607,"EPHEMERIS_TYPE":0,"CLASSIFICATION_TYPE":"U","NORAD_CAT_ID":47271,"ELEMENT_SET_NO":999,"REV_AT_EPOCH":24877,"BSTAR":-0.00018708258,"MEAN_MOTION_DOT":-5.5e-7,"MEAN_MOTION_DDOT":0},{"OBJECT_NAME":"ONEWEB-0126","OBJECT_ID":"2020-100Q","EPOCH":"2026-02-16T06:47:26.507616","MEAN_MOTION":13.12443975,"ECCENTRICITY":0.00019649,"INCLINATION":87.8976,"RA_OF_ASC_NODE":14.6688,"ARG_OF_PERICENTER":84.1198,"MEAN_ANOMALY":276.0155,"EPHEMERIS_TYPE":0,"CLASSIFICATION_TYPE":"U","NORAD_CAT_ID":47272,"ELEMENT_SET_NO":999,"REV_AT_EPOCH":24884,"BSTAR":0.0013342545,"MEAN_MOTION_DOT":4.93e-6,"MEAN_MOTION_DDOT":0},{"OBJECT_NAME":"ONEWEB-0127","OBJECT_ID":"2020-100R","EPOCH":"2026-02-15T22:39:19.172160","MEAN_MOTION":13.12444946,"ECCENTRICITY":0.0001939,"INCLINATION":87.896,"RA_OF_ASC_NODE":14.7425,"ARG_OF_PERICENTER":86.8664,"MEAN_ANOMALY":273.2686,"EPHEMERIS_TYPE":0,"CLASSIFICATION_TYPE":"U","NORAD_CAT_ID":47273,"ELEMENT_SET_NO":999,"REV_AT_EPOCH":24882,"BSTAR":-0.00062516,"MEAN_MOTION_DOT":-2.12e-6,"MEAN_MOTION_DDOT":0},{"OBJECT_NAME":"ONEWEB-0128","OBJECT_ID":"2020-100S","EPOCH":"2026-02-16T06:30:11.007072","MEAN_MOTION":13.12441804,"ECCENTRICITY":0.00015001,"INCLINATION":87.8965,"RA_OF_ASC_NODE":14.6916,"ARG_OF_PERICENTER":89.898,"MEAN_ANOMALY":270.232,"EPHEMERIS_TYPE":0,"CLASSIFICATION_TYPE":"U","NORAD_CAT_ID":47274,"ELEMENT_SET_NO":999,"REV_AT_EPOCH":24888,"BSTAR":0.0022884463,"MEAN_MOTION_DOT":8.36e-6,"MEAN_MOTION_DDOT":0},{"OBJECT_NAME":"ONEWEB-0129","OBJECT_ID":"2020-100T","EPOCH":"2026-02-15T22:41:44.814048","MEAN_MOTION":13.12443087,"ECCENTRICITY":0.0002779,"INCLINATION":87.897,"RA_OF_ASC_NODE":14.7174,"ARG_OF_PERICENTER":99.0227,"MEAN_ANOMALY":261.1216,"EPHEMERIS_TYPE":0,"CLASSIFICATION_TYPE":"U","NORAD_CAT_ID":47275,"ELEMENT_SET_NO":999,"REV_AT_EPOCH":24877,"BSTAR":-0.0015272,"MEAN_MOTION_DOT":-5.37e-6,"MEAN_MOTION_DDOT":0},{"OBJECT_NAME":"ONEWEB-0130","OBJECT_ID":"2020-100U","EPOCH":"2026-02-16T06:39:55.541952","MEAN_MOTION":13.12442829,"ECCENTRICITY":0.00018648,"INCLINATION":87.8974,"RA_OF_ASC_NODE":14.6457,"ARG_OF_PERICENTER":87.4689,"MEAN_ANOMALY":272.6653,"EPHEMERIS_TYPE":0,"CLASSIFICATION_TYPE":"U","NORAD_CAT_ID":47276,"ELEMENT_SET_NO":999,"REV_AT_EPOCH":24878,"BSTAR":0.0012050173,"MEAN_MOTION_DOT":4.46e-6,"MEAN_MOTION_DDOT":0},{"OBJECT_NAME":"ONEWEB-0131","OBJECT_ID":"2020-100V","EPOCH":"2026-02-15T10:27:26.268480","MEAN_MOTION":13.12444921,"ECCENTRICITY":0.00018222,"INCLINATION":87.8967,"RA_OF_ASC_NODE":14.8431,"ARG_OF_PERICENTER":84.1414,"MEAN_ANOMALY":275.9922,"EPHEMERIS_TYPE":0,"CLASSIFICATION_TYPE":"U","NORAD_CAT_ID":47277,"ELEMENT_SET_NO":999,"REV_AT_EPOCH":24871,"BSTAR":0.0010688537,"MEAN_MOTION_DOT":3.97e-6,"MEAN_MOTION_DDOT":0},{"OBJECT_NAME":"ONEWEB-0132","OBJECT_ID":"2020-100W","EPOCH":"2026-02-15T20:17:50.753184","MEAN_MOTION":13.12441482,"ECCENTRICITY":0.0001767,"INCLINATION":87.8963,"RA_OF_ASC_NODE":14.7609,"ARG_OF_PERICENTER":84.3668,"MEAN_ANOMALY":275.7662,"EPHEMERIS_TYPE":0,"CLASSIFICATION_TYPE":"U","NORAD_CAT_ID":47278,"ELEMENT_SET_NO":999,"REV_AT_EPOCH":24866,"BSTAR":-0.00049828,"MEAN_MOTION_DOT":-1.67e-6,"MEAN_MOTION_DDOT":0},{"OBJECT_NAME":"ONEWEB-0133","OBJECT_ID":"2020-100X","EPOCH":"2026-02-15T22:31:47.609472","MEAN_MOTION":13.12443963,"ECCENTRICITY":0.0001704,"INCLINATION":87.8972,"RA_OF_ASC_NODE":14.7057,"ARG_OF_PERICENTER":85.3465,"MEAN_ANOMALY":274.7858,"EPHEMERIS_TYPE":0,"CLASSIFICATION_TYPE":"U","NORAD_CAT_ID":47279,"ELEMENT_SET_NO":999,"REV_AT_EPOCH":24883,"BSTAR":-0.0010281,"MEAN_MOTION_DOT":-3.57e-6,"MEAN_MOTION_DDOT":0},{"OBJECT_NAME":"ONEWEB-0134","OBJECT_ID":"2020-100Y","EPOCH":"2026-02-16T06:57:00.458496","MEAN_MOTION":13.12442734,"ECCENTRICITY":0.00017978,"INCLINATION":87.8976,"RA_OF_ASC_NODE":14.6329,"ARG_OF_PERICENTER":91.3303,"MEAN_ANOMALY":268.8032,"EPHEMERIS_TYPE":0,"CLASSIFICATION_TYPE":"U","NORAD_CAT_ID":47280,"ELEMENT_SET_NO":999,"REV_AT_EPOCH":24885,"BSTAR":0.00091776497,"MEAN_MOTION_DOT":3.43e-6,"MEAN_MOTION_DDOT":0},{"OBJECT_NAME":"ONEWEB-0135","OBJECT_ID":"2020-100Z","EPOCH":"2026-02-15T22:56:24.066240","MEAN_MOTION":13.12444088,"ECCENTRICITY":0.00017,"INCLINATION":87.8964,"RA_OF_ASC_NODE":14.7373,"ARG_OF_PERICENTER":93.296,"MEAN_ANOMALY":266.8363,"EPHEMERIS_TYPE":0,"CLASSIFICATION_TYPE":"U","NORAD_CAT_ID":47281,"ELEMENT_SET_NO":999,"REV_AT_EPOCH":24883,"BSTAR":0.00036295,"MEAN_MOTION_DOT":1.43e-6,"MEAN_MOTION_DDOT":0},{"OBJECT_NAME":"ONEWEB-0136","OBJECT_ID":"2020-100AA","EPOCH":"2026-02-15T19:43:39.681120","MEAN_MOTION":13.12444037,"ECCENTRICITY":0.000183,"INCLINATION":87.8974,"RA_OF_ASC_NODE":14.7348,"ARG_OF_PERICENTER":94.974,"MEAN_ANOMALY":265.1598,"EPHEMERIS_TYPE":0,"CLASSIFICATION_TYPE":"U","NORAD_CAT_ID":47282,"ELEMENT_SET_NO":999,"REV_AT_EPOCH":24874,"BSTAR":0.00089812,"MEAN_MOTION_DOT":3.36e-6,"MEAN_MOTION_DDOT":0},{"OBJECT_NAME":"ONEWEB-0137","OBJECT_ID":"2020-100AB","EPOCH":"2026-02-15T22:22:14.551104","MEAN_MOTION":13.12443067,"ECCENTRICITY":0.0001967,"INCLINATION":87.897,"RA_OF_ASC_NODE":14.7181,"ARG_OF_PERICENTER":79.6087,"MEAN_ANOMALY":280.5263,"EPHEMERIS_TYPE":0,"CLASSIFICATION_TYPE":"U","NORAD_CAT_ID":47283,"ELEMENT_SET_NO":999,"REV_AT_EPOCH":24866,"BSTAR":-0.0010433,"MEAN_MOTION_DOT":-3.63e-6,"MEAN_MOTION_DDOT":0},{"OBJECT_NAME":"ONEWEB-0138","OBJECT_ID":"2020-100AC","EPOCH":"2026-02-16T06:59:26.596320","MEAN_MOTION":13.12441869,"ECCENTRICITY":0.00018794,"INCLINATION":87.8975,"RA_OF_ASC_NODE":14.6557,"ARG_OF_PERICENTER":88.3463,"MEAN_ANOMALY":271.788,"EPHEMERIS_TYPE":0,"CLASSIFICATION_TYPE":"U","NORAD_CAT_ID":47284,"ELEMENT_SET_NO":999,"REV_AT_EPOCH":24879,"BSTAR":0.00065408621,"MEAN_MOTION_DOT":2.48e-6,"MEAN_MOTION_DDOT":0},{"OBJECT_NAME":"ONEWEB-0139","OBJECT_ID":"2020-100AD","EPOCH":"2026-02-15T22:49:16.683456","MEAN_MOTION":13.12443265,"ECCENTRICITY":0.0001889,"INCLINATION":87.8972,"RA_OF_ASC_NODE":14.7118,"ARG_OF_PERICENTER":84.4203,"MEAN_ANOMALY":275.7141,"EPHEMERIS_TYPE":0,"CLASSIFICATION_TYPE":"U","NORAD_CAT_ID":47285,"ELEMENT_SET_NO":999,"REV_AT_EPOCH":24882,"BSTAR":-0.00049319,"MEAN_MOTION_DOT":-1.65e-6,"MEAN_MOTION_DDOT":0}]
